PERSEUS-M1              
1 40039U 14033AF  26159.80708149  .00001811  00000+0  16842-3 0  9991
2 40039  97.9642 103.8017 0010748 333.4788  26.5881 14.95610313649384
POLYITAN-1              
1 40042U 14033AJ  26159.04517620  .00019032  00000+0  59961-3 0  9996
2 40042  98.0952 184.4437 0007909 168.1396 192.0032 15.32938693652194
TIGRISAT                
1 40043U 14033AK  26159.35713877  .00002469  00000+0  28834-3 0  9994
2 40043  97.7824 309.5722 0050702 103.3828 257.3046 14.85127761644314
AEROCUBE 6A             
1 40045U 14033AM  26159.20672198  .00005623  00000+0  47354-3 0  9993
2 40045  97.7225 326.2518 0039366  47.7354 312.7195 14.98009378645272
AEROCUBE 6B             
1 40046U 14033AN  26159.41800958  .00005999  00000+0  48615-3 0  9991
2 40046  97.7230 326.2312 0039032  39.0451 321.3578 14.99474948645443
CANX-4                  
1 40055U 14034C   26159.23518148  .00001005  00000+0  13618-3 0  9998
2 40055  98.3133  34.2191 0013741  44.2907 315.9401 14.81248501643207
CANX-5                  
1 40056U 14034D   26159.43636990  .00001002  00000+0  13568-3 0  9998
2 40056  98.3136  34.4710 0013732  43.8092 316.4206 14.81266011634047
UKUBE-1                 
1 40074U 14037F   26159.83796933  .00008317  00000+0  46974-3 0  9992
2 40074  98.4240 162.2333 0002120 145.0841 215.0527 15.13419317647297
BRITE-PL2 (HEWELIUSZ)   
1 40119U 14049B   26159.80363684  .00002327  00000+0  22026-3 0  9992
2 40119  97.9089 271.7398 0015166 133.3878 226.8607 14.94567394640191
AEROCUBE 5C             
1 40965U 15058B   26159.72205477  .00002888  00000+0  26001-3 0  9997
2 40965  64.7678 288.9239 0130422  66.5916 294.8849 14.91414898364398
AEROCUBE 7              
1 40966U 15058C   26159.74252687  .00003895  00000+0  31598-3 0  9991
2 40966  64.7627 271.2652 0120142  65.0658 296.2883 14.95673112364699
FOX-1A (AO-85)          
1 40967U 15058D   26159.76689639  .00003039  00000+0  27655-3 0  9994
2 40967  64.7758 305.1507 0129970  59.8929 301.4993 14.90929725112311
SINOD-D 1               
1 40968U 15058E   26159.72149155  .00003894  00000+0  31553-3 0  9996
2 40968  64.7760 285.4228 0118557  56.4584 304.7786 14.95852167115391
SNAP-3 ALICE            
1 40970U 15058G   26159.32181730  .00115544  00000+0  14776-2 0  9993
2 40970  64.7500 134.5296 0030626  17.4495 342.7695 15.58059513115501
LMRST-SAT               
1 40971U 15058H   26159.78715376  .00002873  00000+0  26380-3 0  9998
2 40971  64.7765 301.4098 0131641  61.9016 299.5330 14.90552893112306
SNAP-3 EDDIE            
1 40972U 15058J   26159.19051797  .00100423  00000+0  12325-2 0  9997
2 40972  64.7422 125.7723 0030594  21.6245 338.6184 15.59200283117622
PROPCUBE 3              
1 40973U 15058K   26159.70947703  .00003403  00000+0  28660-3 0  9996
2 40973  64.7692 279.0224 0123650  63.2696 298.1009 14.94210956113537
BISONSAT                
1 40974U 15058L   26159.45799472  .00008524  00000+0  41811-3 0  9999
2 40974  64.7590 201.8622 0078394  50.8621 309.9436 15.16008968114296
SNAP-3 JIMI             
1 40975U 15058M   26159.33532604  .00004322  00000+0  30225-3 0  9998
2 40975  64.7649 247.7776 0105719  58.9972 302.1477 15.02222356112899
PROPCUBE 1 (FLORA)      
1 40976U 15058N   26159.80151957  .00002638  00000+0  25314-3 0  9990
2 40976  64.7755 321.2252 0130376  64.2084 297.2411 14.89182296115017
SINOD-D 3               
1 40977U 15058P   26159.73977459  .00003914  00000+0  33314-3 0  9993
2 40977  64.7735 302.1968 0118875  61.4937 299.8086 14.93963241113492
HORYU-4                 
1 41340U 16012D   26158.66010672  .00317249  00000+0  10211-2 0  9994
2 41340  30.9848 148.6331 0002832 206.9121 153.1392 15.89027763569291
RAVAN                   
1 41849U 16067B   26159.73862447  .00051232  00000+0  79343-3 0  9991
2 41849  97.9899  48.3393 0005655  54.3591 305.8187 15.53870911526383
CELTEE 1                
1 41850U 16067C   26159.38368841  .00005104  00000+0  24342-3 0  9999
2 41850  98.0685  25.3505 0000625 106.7454 253.3848 15.19595408524546
OPTICUBE 04             
1 41851U 16067D   26159.86019558  .00002650  00000+0  16873-3 0  9994
2 41851  98.0713  11.7096 0016488 141.8171 218.4228 15.09625809523915
AEROCUBE 8D             
1 41852U 16067E   26159.35933040  .00006428  00000+0  26652-3 0  9993
2 41852  98.0697  28.8593 0004155 145.1351 215.0157 15.24273762524721
AEROCUBE 8C             
1 41853U 16067F   26159.38575410  .00007152  00000+0  29386-3 0  9992
2 41853  98.0569  26.1268 0006824  92.5986 267.6031 15.24519838524725
CORVUS BC2              
1 42846U 17042X   26159.42592979  .00002769  00000+0  19240-3 0  9990
2 42846  97.4061 321.1181 0014203 137.0473 223.1867 15.06240547485746
CORVUS BC1              
1 42847U 17042Y   26159.42153111  .00002771  00000+0  19174-3 0  9991
2 42847  97.4085 321.9220 0013306 115.8711 244.3891 15.06407941485775
MAKERSAT 0              
1 43016U 17073D   26158.64340438  .00021201  00000+0  58054-3 0  9996
2 43016  97.4640  41.0894 0106135 307.5668  51.5969 15.31756991465000
